OBJECT_NAME,OBJECT_ID,EPOCH,MEAN_MOTION,ECCENTRICITY,INCLINATION,RA_OF_ASC_NODE,ARG_OF_PERICENTER,MEAN_ANOMALY,EPHEMERIS_TYPE,CLASSIFICATION_TYPE,NORAD_CAT_ID,ELEMENT_SET_NO,REV_AT_EPOCH,BSTAR,MEAN_MOTION_DOT,MEAN_MOTION_DDOT
SPAINSAT NG I,2025-021A,2026-06-28T22:51:49.726368,1.00272360,.00003907,0.0187,358.9491,125.9496,164.0857,0,U,62852,999,410,0,.163E-5,0
QZS-6 (MICHIBIKI-6),2025-023A,2026-06-28T23:08:30.924384,1.00272951,.00021174,0.0514,282.5570,188.2374,243.9139,0,U,62876,999,506,0,-.222E-5,0
ZHONGXING-10R,2025-036A,2026-06-28T23:15:02.500416,1.00273406,.00040586,0.0647,245.6635,258.2722,232.4140,0,U,63075,999,507,0,-.341E-5,0
TJS-15,2025-045A,2026-06-28T18:41:31.521120,1.00268035,.0004566,0.2971,85.6238,303.7601,262.1869,0,U,63157,999,487,0,-.252E-5,0
TIANLIAN 2-04,2025-062A,2026-06-28T21:23:45.391776,1.00271716,.00310942,4.3453,274.2672,10.1217,33.5967,0,U,63361,999,472,0,-.119E-5,0
TJS-16,2025-064A,2026-06-28T18:46:37.625088,1.00272289,.0003149,1.1272,81.4101,299.6233,338.1180,0,U,63397,999,450,0,-.94E-6,0
TJS-17,2025-073A,2026-06-28T18:45:22.438080,1.00271030,.0001786,1.0931,82.6193,314.3979,325.7498,0,U,63524,999,440,0,-.59E-6,0
TIANLIAN 2-05,2025-084A,2026-06-29T02:14:33.411264,1.00275447,.0003442,4.4219,279.6954,158.3353,253.2015,0,U,63662,999,450,0,.141E-5,0
TJS-19,2025-097A,2026-06-28T18:45:59.848416,1.00273358,.0003163,3.2670,317.6263,237.7111,144.3116,0,U,63924,999,426,0,-.261E-5,0
CHINASAT 3B,2025-106A,2026-06-29T04:28:38.777088,1.00271297,.00038,0.0197,109.8573,20.6724,21.2033,0,U,64062,999,418,0,-.34E-6,0
SXM-10,2025-122A,2026-06-28T17:02:25.174176,1.00271223,.00019544,0.0172,29.1156,343.3032,43.8200,0,U,64290,999,379,0,-.5E-7,0
COSMOS 2589,2025-131A,2026-06-28T18:24:21.817152,1.00272749,.0000901,0.0374,114.2852,101.5914,75.0533,0,U,64467,999,367,0,-.28E-5,0
CHINASAT 9C,2025-132A,2026-06-28T23:26:23.009280,1.00271405,.00034143,0.0377,92.9185,0.8904,267.0594,0,U,64470,999,426,0,-.236E-5,0
MTG-S1,2025-143A,2026-06-28T22:43:20.040672,1.00272158,.00027493,0.5940,341.4285,267.3096,8.6673,0,U,64723,999,353,0,.4E-7,0
DROR 1,2025-148A,2026-06-28T22:42:20.136096,1.00272149,.00026779,0.0176,359.0413,41.6762,212.8808,0,U,64784,999,341,0,-.23E-6,0
SHIYAN-29,2025-196A,2026-06-28T23:58:21.554112,1.00282805,.00129359,28.8337,18.3863,174.8009,178.4737,0,U,65486,999,299,0,-.274E-5,0
NUSANTARA LIMA (NUSANTARA 5),2025-205A,2026-06-28T22:22:25.676832,1.00273024,.00007146,0.0071,94.3864,36.5444,234.5599,0,U,65588,999,283,0,-.346E-5,0
TJS-20,2025-238A,2026-06-28T23:01:18.816384,1.00271074,.00047541,5.4436,299.5045,166.2447,219.0116,0,U,66142,999,245,0,.42E-6,0
CMS-03 (GSAT-7R),2025-249B,2026-06-28T23:04:33.504960,1.00272028,.00021944,0.0647,262.1065,167.8123,267.2427,0,U,66311,999,246,0,-.65E-6,0
VIASAT-3 F2,2025-261A,2026-06-28T22:21:00.557280,1.00272351,.0000579,0.0160,183.6285,342.1706,7.4966,0,U,66454,999,291,0,-.222E-5,0
SHIJIAN-28 (SJ-28),2025-277A,2026-06-28T18:08:47.999040,1.00272055,.00006866,4.5092,271.9448,44.1276,349.8236,0,U,66549,999,227,0,-.343E-5,0
TJS-22,2025-290A,2026-06-28T20:17:08.966688,1.00272945,.00023033,1.5006,286.7060,321.9606,39.0236,0,U,66990,999,214,0,.6E-7,0
TJS-23,2025-306A,2026-06-28T13:42:06.165216,1.00271528,.00045662,5.5622,297.4281,182.6542,177.5688,0,U,67226,999,200,0,.34E-6,0
FENGYUN 4C,2025-312A,2026-06-29T04:29:12.117120,1.00271526,.0000632,0.0487,164.9883,357.9225,314.6656,0,U,67246,999,190,0,-.312E-5,0
SHIJIAN-29A (SJ-29A),2025-315A,2026-06-28T23:04:18.529248,1.00271304,.00035887,3.4268,94.8336,23.6419,217.7927,0,U,67302,999,173,0,-.59E-6,0
SHIJIAN-29B (SJ-29B),2025-315C,2026-06-28T23:04:18.529248,1.00271238,.00046134,3.4258,94.8268,37.8659,203.6093,0,U,67403,999,180,0,-.59E-6,0
ELEKTRO-L 5,2026-028A,2026-06-28T00:31:17.696640,1.00272134,.00017847,0.2328,316.5971,182.5647,220.8484,0,U,67756,999,136,0,-.86E-6,0
JAM-E JAM 1,2026-028B,2026-06-28T23:44:07.375200,1.00266931,.00011877,0.2366,306.1118,349.2322,11.8683,0,U,67757,999,123,0,.167E-5,0
ECHOSTAR 25,2026-045A,2026-06-28T20:29:21.999840,1.00270915,.00017189,0.0250,32.1521,71.9227,10.2202,0,U,68126,999,111,0,0,0
TJS-24,2026-116A,2026-06-28T23:08:30.890688,1.00270376,.00005947,0.0435,104.1891,352.6775,257.5914,0,U,69235,999,34,0,-.22E-5,0
