SPAINSAT NG I           
1 62852U 25021A   26179.95265887  .00000163  00000+0  00000+0 0  9996
2 62852   0.0187 358.9491 0000390 125.9496 164.0857  1.00272360  4105
QZS-6 (MICHIBIKI-6)     
1 62876U 25023A   26179.96424681 -.00000222  00000+0  00000+0 0  9991
2 62876   0.0514 282.5570 0002117 188.2374 243.9139  1.00272951  5063
ZHONGXING-10R           
1 63075U 25036A   26179.96877894 -.00000341  00000+0  00000+0 0  9997
2 63075   0.0647 245.6635 0004058 258.2722 232.4140  1.00273406  5077
TJS-15                  
1 63157U 25045A   26179.77883705 -.00000252  00000+0  00000+0 0  9996
2 63157   0.2971  85.6238 0004566 303.7601 262.1869  1.00268035  4874
TIANLIAN 2-04           
1 63361U 25062A   26179.89149759 -.00000119  00000+0  00000+0 0  9991
2 63361   4.3453 274.2672 0031094  10.1217  33.5967  1.00271716  4720
TJS-16                  
1 63397U 25064A   26179.78237992 -.00000094  00000+0  00000+0 0  9999
2 63397   1.1272  81.4101 0003149 299.6233 338.1180  1.00272289  4503
TJS-17                  
1 63524U 25073A   26179.78150970 -.00000059  00000+0  00000+0 0  9992
2 63524   1.0931  82.6193 0001786 314.3979 325.7498  1.00271030  4403
TIANLIAN 2-05           
1 63662U 25084A   26180.09344226  .00000141  00000+0  00000+0 0  9993
2 63662   4.4219 279.6954 0003442 158.3353 253.2015  1.00275447  4505
TJS-19                  
1 63924U 25097A   26179.78194269 -.00000261  00000+0  00000+0 0  9996
2 63924   3.2670 317.6263 0003163 237.7111 144.3116  1.00273358  4268
CHINASAT 3B             
1 64062U 25106A   26180.18655992 -.00000034  00000+0  00000+0 0  9990
2 64062   0.0197 109.8573 0003800  20.6724  21.2033  1.00271297  4185
SXM-10                  
1 64290U 25122A   26179.71001359 -.00000005  00000+0  00000+0 0  9998
2 64290   0.0172  29.1156 0001954 343.3032  43.8200  1.00271223  3798
COSMOS 2589             
1 64467U 25131A   26179.76691918 -.00000280  00000+0  00000+0 0  9990
2 64467   0.0374 114.2852 0000901 101.5914  75.0533  1.00272749  3678
CHINASAT 9C             
1 64470U 25132A   26179.97665520 -.00000236  00000+0  00000+0 0  9999
2 64470   0.0377  92.9185 0003414   0.8904 267.0594  1.00271405  4262
MTG-S1                  
1 64723U 25143A   26179.94675973  .00000004  00000+0  00000+0 0  9994
2 64723   0.5940 341.4285 0002749 267.3096   8.6673  1.00272158  3531
DROR 1                  
1 64784U 25148A   26179.94606639 -.00000023  00000+0  00000+0 0  9991
2 64784   0.0176 359.0413 0002677  41.6762 212.8808  1.00272149  3411
SHIYAN-29               
1 65486U 25196A   26179.99886058 -.00000274  00000+0  00000+0 0  9992
2 65486  28.8337  18.3863 0012935 174.8009 178.4737  1.00282805  2993
NUSANTARA LIMA (NUSANT*)
1 65588U 25205A   26179.93224163 -.00000346  00000+0  00000+0 0  9993
2 65588   0.0071  94.3864 0000714  36.5444 234.5599  1.00273024  2833
TJS-20                  
1 66142U 25238A   26179.95924556  .00000042  00000+0  00000+0 0  9993
2 66142   5.4436 299.5045 0004754 166.2447 219.0116  1.00271074  2450
CMS-03 (GSAT-7R)        
1 66311U 25249B   26179.96149890 -.00000065  00000+0  00000+0 0  9990
2 66311   0.0647 262.1065 0002194 167.8123 267.2427  1.00272028  2466
VIASAT-3 F2             
1 66454U 25261A   26179.93125645 -.00000222  00000+0  00000+0 0  9996
2 66454   0.0160 183.6285 0000579 342.1706   7.4966  1.00272351  2916
SHIJIAN-28 (SJ-28)      
1 66549U 25277A   26179.75611110 -.00000343  00000+0  00000+0 0  9999
2 66549   4.5092 271.9448 0000686  44.1276 349.8236  1.00272055  2279
TJS-22                  
1 66990U 25290A   26179.84524267  .00000006  00000+0  00000+0 0  9995
2 66990   1.5006 286.7060 0002303 321.9606  39.0236  1.00272945  2148
TJS-23                  
1 67226U 25306A   26179.57090469  .00000034  00000+0  00000+0 0  9999
2 67226   5.5622 297.4281 0004566 182.6542 177.5688  1.00271528  2007
FENGYUN 4C              
1 67246U 25312A   26180.18694580 -.00000312  00000+0  00000+0 0  9991
2 67246   0.0487 164.9883 0000632 357.9225 314.6656  1.00271526  1904
SHIJIAN-29A (SJ-29A)    
1 67302U 25315A   26179.96132557 -.00000059  00000+0  00000+0 0  9990
2 67302   3.4268  94.8336 0003588  23.6419 217.7927  1.00271304  1739
SHIJIAN-29B (SJ-29B)    
1 67403U 25315C   26179.96132557 -.00000059  00000+0  00000+0 0  9992
2 67403   3.4258  94.8268 0004613  37.8659 203.6093  1.00271238  1809
ELEKTRO-L 5             
1 67756U 26028A   26179.02173260 -.00000086  00000+0  00000+0 0  9998
2 67756   0.2328 316.5971 0001784 182.5647 220.8484  1.00272134  1361
JAM-E JAM 1             
1 67757U 26028B   26179.98897425  .00000167  00000+0  00000+0 0  9999
2 67757   0.2366 306.1118 0001187 349.2322  11.8683  1.00266931  1234
ECHOSTAR 25             
1 68126U 26045A   26179.85372685  .00000000  00000+0  00000+0 0  9997
2 68126   0.0250  32.1521 0001718  71.9227  10.2202  1.00270915  1116
TJS-24                  
1 69235U 26116A   26179.96424642 -.00000220  00000+0  00000+0 0  9996
2 69235   0.0435 104.1891 0000594 352.6775 257.5914  1.00270376   342
